[Satellite]
VERSION=1.1
NAME=GORIZONT 20 [-]
NICKNAME=GORIZONT 20 [-]
TLE1=1 20659U 90054A   15053.96022060  .00000052  00000-0  00000+0 0  9995
TLE2=2 20659  14.8767  13.5944 0008595 128.0124  49.5092  1.00278356 90255
